ATLAS CENTAUR R/B       
1 06155U 72065B   26010.92055465  .00001216  00000+0  16929-3 0  9991
2 06155  35.0020 284.2550 0034563 244.7523 114.9593 14.77501460832711
SL-8 R/B                
1 08459U 75112B   26010.76817702  .00000268  00000+0  96791-4 0  9990
2 08459  74.0613 125.4646 0016521 233.9379 126.0246 14.38168016623547
SL-3 R/B                
1 10114U 77057B   26010.54373151  .00011723  00000+0  26095-3 0  9999
2 10114  97.5701 180.0126 0008316 127.1280 233.0728 15.43759195659357
SEASAT 1                
1 10967U 78064A   26010.87458778  .00000375  00000+0  14336-3 0  9995
2 10967 108.0155   4.1655 0001176 272.1869  87.9142 14.46099771498152
SL-14 R/B               
1 11267U 79011B   26010.76451179  .00000804  00000+0  77060-4 0  9999
2 11267  82.5253 151.5172 0014710 249.2725 110.6918 14.91817726520144
SL-8 R/B                
1 11574U 79089B   26010.89899989  .00000348  00000+0  11339-3 0  9993
2 11574  74.0671 198.0103 0015304  21.2269 338.9519 14.42304456427770
SL-14 R/B               
1 11672U 80005B   26010.67241604  .00000745  00000+0  72963-4 0  9995
2 11672  82.5145   2.2549 0015792   3.1170 357.0144 14.90835990467843
SL-8 R/B                
1 12139U 81003B   26010.87556473  .00026377  00000+0  69689-3 0  9997
2 12139  82.9387 343.3884 0272967  20.3279 340.8564 15.08303239305950
SL-3 R/B                
1 12465U 81046B   26010.86952510  .00011074  00000+0  27213-3 0  9992
2 12465  81.2329 359.0692 0018311 215.9708 144.0303 15.40339002429529
SL-3 R/B                
1 12904U 81103B   26010.94617938  .00005923  00000+0  26811-3 0  9994
2 12904  81.1594 281.1420 0014141 116.0041 244.2648 15.20647021964454
SL-3 R/B                
1 13068U 82013B   26010.97988802  .00003593  00000+0  15802-3 0  9990
2 13068  81.1729 228.3768 0023195  16.5535 343.6449 15.21379489395570
SL-3 R/B                
1 13154U 82039B   26011.00237330  .00002887  00000+0  17575-3 0  9996
2 13154  81.1683 282.4252 0029781 153.4491 206.8268 15.09731119372935
