CCSDS_OMM_VERS = 2.0
CREATION_DATE  = 
ORIGINATOR     = 

OBJECT_NAME    = ATLAS CENTAUR R/B
OBJECT_ID      = 1972-065B
CENTER_NAME    = EARTH
REF_FRAME      = TEME
TIME_SYSTEM    = UTC
MEAN_ELEMENT_THEORY = SGP/SGP4

EPOCH          = 2026-01-10T22:05:35.921760
MEAN_MOTION    = 14.77501460
ECCENTRICITY   = .00345632
INCLINATION    = 35.0020
RA_OF_ASC_NODE = 284.2550
ARG_OF_PERICENTER = 244.7523
MEAN_ANOMALY   = 114.9593

EPHEMERIS_TYPE = 0
CLASSIFICATION_TYPE = U
NORAD_CAT_ID   = 6155
ELEMENT_SET_NO = 999
REV_AT_EPOCH   = 83271
BSTAR          = .16929487E-3
MEAN_MOTION_DOT = .1216E-4
MEAN_MOTION_DDOT = 0

CCSDS_OMM_VERS = 2.0
CREATION_DATE  = 
ORIGINATOR     = 

OBJECT_NAME    = SL-8 R/B
OBJECT_ID      = 1975-112B
CENTER_NAME    = EARTH
REF_FRAME      = TEME
TIME_SYSTEM    = UTC
MEAN_ELEMENT_THEORY = SGP/SGP4

EPOCH          = 2026-01-10T18:26:10.494528
MEAN_MOTION    = 14.38168016
ECCENTRICITY   = .00165213
INCLINATION    = 74.0613
RA_OF_ASC_NODE = 125.4646
ARG_OF_PERICENTER = 233.9379
MEAN_ANOMALY   = 126.0246

EPHEMERIS_TYPE = 0
CLASSIFICATION_TYPE = U
NORAD_CAT_ID   = 8459
ELEMENT_SET_NO = 999
REV_AT_EPOCH   = 62354
BSTAR          = .96790568E-4
MEAN_MOTION_DOT = .268E-5
MEAN_MOTION_DDOT = 0

CCSDS_OMM_VERS = 2.0
CREATION_DATE  = 
ORIGINATOR     = 

OBJECT_NAME    = SL-3 R/B
OBJECT_ID      = 1977-057B
CENTER_NAME    = EARTH
REF_FRAME      = TEME
TIME_SYSTEM    = UTC
MEAN_ELEMENT_THEORY = SGP/SGP4

EPOCH          = 2026-01-10T13:02:58.402464
MEAN_MOTION    = 15.43759195
ECCENTRICITY   = .00083169
INCLINATION    = 97.5701
RA_OF_ASC_NODE = 180.0126
ARG_OF_PERICENTER = 127.1280
MEAN_ANOMALY   = 233.0728

EPHEMERIS_TYPE = 0
CLASSIFICATION_TYPE = U
NORAD_CAT_ID   = 10114
ELEMENT_SET_NO = 999
REV_AT_EPOCH   = 65935
BSTAR          = .26095309E-3
MEAN_MOTION_DOT = .11723E-3
MEAN_MOTION_DDOT = 0

CCSDS_OMM_VERS = 2.0
CREATION_DATE  = 
ORIGINATOR     = 

OBJECT_NAME    = SEASAT 1
OBJECT_ID      = 1978-064A
CENTER_NAME    = EARTH
REF_FRAME      = TEME
TIME_SYSTEM    = UTC
MEAN_ELEMENT_THEORY = SGP/SGP4

EPOCH          = 2026-01-10T20:59:24.384192
MEAN_MOTION    = 14.46099771
ECCENTRICITY   = .00011769
INCLINATION    = 108.0155
RA_OF_ASC_NODE = 4.1655
ARG_OF_PERICENTER = 272.1869
MEAN_ANOMALY   = 87.9142

EPHEMERIS_TYPE = 0
CLASSIFICATION_TYPE = U
NORAD_CAT_ID   = 10967
ELEMENT_SET_NO = 999
REV_AT_EPOCH   = 49815
BSTAR          = .14335809E-3
MEAN_MOTION_DOT = .375E-5
MEAN_MOTION_DDOT = 0

CCSDS_OMM_VERS = 2.0
CREATION_DATE  = 
ORIGINATOR     = 

OBJECT_NAME    = SL-14 R/B
OBJECT_ID      = 1979-011B
CENTER_NAME    = EARTH
REF_FRAME      = TEME
TIME_SYSTEM    = UTC
MEAN_ELEMENT_THEORY = SGP/SGP4

EPOCH          = 2026-01-10T18:20:53.818656
MEAN_MOTION    = 14.91817726
ECCENTRICITY   = .001471
INCLINATION    = 82.5253
RA_OF_ASC_NODE = 151.5172
ARG_OF_PERICENTER = 249.2725
MEAN_ANOMALY   = 110.6918

EPHEMERIS_TYPE = 0
CLASSIFICATION_TYPE = U
NORAD_CAT_ID   = 11267
ELEMENT_SET_NO = 999
REV_AT_EPOCH   = 52014
BSTAR          = .77059774E-4
MEAN_MOTION_DOT = .804E-5
MEAN_MOTION_DDOT = 0

CCSDS_OMM_VERS = 2.0
CREATION_DATE  = 
ORIGINATOR     = 

OBJECT_NAME    = SL-8 R/B
OBJECT_ID      = 1979-089B
CENTER_NAME    = EARTH
REF_FRAME      = TEME
TIME_SYSTEM    = UTC
MEAN_ELEMENT_THEORY = SGP/SGP4

EPOCH          = 2026-01-10T21:34:33.590496
MEAN_MOTION    = 14.42304456
ECCENTRICITY   = .00153046
INCLINATION    = 74.0671
RA_OF_ASC_NODE = 198.0103
ARG_OF_PERICENTER = 21.2269
MEAN_ANOMALY   = 338.9519

EPHEMERIS_TYPE = 0
CLASSIFICATION_TYPE = U
NORAD_CAT_ID   = 11574
ELEMENT_SET_NO = 999
REV_AT_EPOCH   = 42777
BSTAR          = .11339292E-3
MEAN_MOTION_DOT = .348E-5
MEAN_MOTION_DDOT = 0

CCSDS_OMM_VERS = 2.0
CREATION_DATE  = 
ORIGINATOR     = 

OBJECT_NAME    = SL-14 R/B
OBJECT_ID      = 1980-005B
CENTER_NAME    = EARTH
REF_FRAME      = TEME
TIME_SYSTEM    = UTC
MEAN_ELEMENT_THEORY = SGP/SGP4

EPOCH          = 2026-01-10T16:08:16.745856
MEAN_MOTION    = 14.90835990
ECCENTRICITY   = .00157925
INCLINATION    = 82.5145
RA_OF_ASC_NODE = 2.2549
ARG_OF_PERICENTER = 3.1170
MEAN_ANOMALY   = 357.0144

EPHEMERIS_TYPE = 0
CLASSIFICATION_TYPE = U
NORAD_CAT_ID   = 11672
ELEMENT_SET_NO = 999
REV_AT_EPOCH   = 46784
BSTAR          = .72962905E-4
MEAN_MOTION_DOT = .745E-5
MEAN_MOTION_DDOT = 0

CCSDS_OMM_VERS = 2.0
CREATION_DATE  = 
ORIGINATOR     = 

OBJECT_NAME    = SL-8 R/B
OBJECT_ID      = 1981-003B
CENTER_NAME    = EARTH
REF_FRAME      = TEME
TIME_SYSTEM    = UTC
MEAN_ELEMENT_THEORY = SGP/SGP4

EPOCH          = 2026-01-10T21:00:48.792672
MEAN_MOTION    = 15.08303239
ECCENTRICITY   = .02729674
INCLINATION    = 82.9387
RA_OF_ASC_NODE = 343.3884
ARG_OF_PERICENTER = 20.3279
MEAN_ANOMALY   = 340.8564

EPHEMERIS_TYPE = 0
CLASSIFICATION_TYPE = U
NORAD_CAT_ID   = 12139
ELEMENT_SET_NO = 999
REV_AT_EPOCH   = 30595
BSTAR          = .69688867E-3
MEAN_MOTION_DOT = .26377E-3
MEAN_MOTION_DDOT = 0

CCSDS_OMM_VERS = 2.0
CREATION_DATE  = 
ORIGINATOR     = 

OBJECT_NAME    = SL-3 R/B
OBJECT_ID      = 1981-046B
CENTER_NAME    = EARTH
REF_FRAME      = TEME
TIME_SYSTEM    = UTC
MEAN_ELEMENT_THEORY = SGP/SGP4

EPOCH          = 2026-01-10T20:52:06.968640
MEAN_MOTION    = 15.40339002
ECCENTRICITY   = .0018311
INCLINATION    = 81.2329
RA_OF_ASC_NODE = 359.0692
ARG_OF_PERICENTER = 215.9708
MEAN_ANOMALY   = 144.0303

EPHEMERIS_TYPE = 0
CLASSIFICATION_TYPE = U
NORAD_CAT_ID   = 12465
ELEMENT_SET_NO = 999
REV_AT_EPOCH   = 42952
BSTAR          = .2721304E-3
MEAN_MOTION_DOT = .11074E-3
MEAN_MOTION_DDOT = 0

CCSDS_OMM_VERS = 2.0
CREATION_DATE  = 
ORIGINATOR     = 

OBJECT_NAME    = SL-3 R/B
OBJECT_ID      = 1981-103B
CENTER_NAME    = EARTH
REF_FRAME      = TEME
TIME_SYSTEM    = UTC
MEAN_ELEMENT_THEORY = SGP/SGP4

EPOCH          = 2026-01-10T22:42:29.898432
MEAN_MOTION    = 15.20647021
ECCENTRICITY   = .00141414
INCLINATION    = 81.1594
RA_OF_ASC_NODE = 281.1420
ARG_OF_PERICENTER = 116.0041
MEAN_ANOMALY   = 244.2648

EPHEMERIS_TYPE = 0
CLASSIFICATION_TYPE = U
NORAD_CAT_ID   = 12904
ELEMENT_SET_NO = 999
REV_AT_EPOCH   = 96445
BSTAR          = .26810652E-3
MEAN_MOTION_DOT = .5923E-4
MEAN_MOTION_DDOT = 0

CCSDS_OMM_VERS = 2.0
CREATION_DATE  = 
ORIGINATOR     = 

OBJECT_NAME    = SL-3 R/B
OBJECT_ID      = 1982-013B
CENTER_NAME    = EARTH
REF_FRAME      = TEME
TIME_SYSTEM    = UTC
MEAN_ELEMENT_THEORY = SGP/SGP4

EPOCH          = 2026-01-10T23:31:02.324928
MEAN_MOTION    = 15.21379489
ECCENTRICITY   = .00231955
INCLINATION    = 81.1729
RA_OF_ASC_NODE = 228.3768
ARG_OF_PERICENTER = 16.5535
MEAN_ANOMALY   = 343.6449

EPHEMERIS_TYPE = 0
CLASSIFICATION_TYPE = U
NORAD_CAT_ID   = 13068
ELEMENT_SET_NO = 999
REV_AT_EPOCH   = 39557
BSTAR          = .15801651E-3
MEAN_MOTION_DOT = .3593E-4
MEAN_MOTION_DDOT = 0

CCSDS_OMM_VERS = 2.0
CREATION_DATE  = 
ORIGINATOR     = 

OBJECT_NAME    = SL-3 R/B
OBJECT_ID      = 1982-039B
CENTER_NAME    = EARTH
REF_FRAME      = TEME
TIME_SYSTEM    = UTC
MEAN_ELEMENT_THEORY = SGP/SGP4

EPOCH          = 2026-01-11T00:03:25.053120
MEAN_MOTION    = 15.09731119
ECCENTRICITY   = .00297818
INCLINATION    = 81.1683
RA_OF_ASC_NODE = 282.4252
ARG_OF_PERICENTER = 153.4491
MEAN_ANOMALY   = 206.8268

EPHEMERIS_TYPE = 0
CLASSIFICATION_TYPE = U
NORAD_CAT_ID   = 13154
ELEMENT_SET_NO = 999
REV_AT_EPOCH   = 37293
BSTAR          = .17574939E-3
MEAN_MOTION_DOT = .2887E-4
MEAN_MOTION_DDOT = 0

